ONEWEB-0309             
1 49095U 21075W   26196.48915004  .00000076  00000+0  16238-3 0  9992
2 49095  87.9145   0.2325 0002378  93.0127 267.1277 13.17650662237301
ONEWEB-0310             
1 49096U 21075X   26196.82454441 -.00000399  00000+0 -11452-2 0  9996
2 49096  87.8963 344.9848 0001875  96.9873 263.1469 13.12443290238940
ONEWEB-0311             
1 49097U 21075Y   26196.49590624  .00000045  00000+0  83305-4 0  9998
2 49097  87.9143   0.2312 0001740  79.0319 281.1009 13.17647878237355
ONEWEB-0312             
1 49098U 21075Z   26196.81484241  .00000196  00000+0  47124-3 0  9997
2 49098  87.9142   0.1781 0002061  84.4156 275.7211 13.17649919237374
ONEWEB-0313             
1 49099U 21075AA  26196.74382087  .00000040  00000+0  69189-4 0  9999
2 49099  87.9143   0.1968 0001830  88.4378 271.6963 13.17650120237359
ONEWEB-0314             
1 49100U 21075AB  26196.48239887  .00000046  00000+0  85468-4 0  9996
2 49100  87.9154   0.2249 0002071  82.5942 277.5425 13.17650921237297
ONEWEB-0315             
1 49101U 21075AC  26196.79744927  .00000273  00000+0  72251-3 0  9994
2 49101  87.8972 344.9566 0001581  85.7454 274.3855 13.12441728238924
ONEWEB-0316             
1 49102U 21075AD  26196.84026782 -.00000019  00000+0 -80764-4 0  9992
2 49102  87.9194 329.7578 0001949  98.9147 261.2206 13.18686479240983
ONEWEB-0317             
1 49103U 21075AE  26196.80083773  .00000129  00000+0  32218-3 0  9992
2 49103  87.8966 344.9796 0002482 107.9962 252.1438 13.12441071238940
ONEWEB-0318             
1 49104U 21075AF  26196.83675845 -.00000010  00000+0 -59190-4 0  9993
2 49104  87.9197 329.7607 0001797  92.6146 267.5191 13.18686628240946
ONEWEB-0319             
1 49105U 21075AG  26196.57352789  .00000023  00000+0  25533-4 0  9990
2 49105  87.9144   0.2209 0001528  80.6388 279.4916 13.17648162237342
ONEWEB-0323             
1 49106U 21075AH  26196.78220411  .00000449  00000+0  12113-2 0  9990
2 49106  87.8973 344.9649 0001650  78.3554 281.7759 13.12443267238305
ONEWEB-0329             
1 49107U 21075AJ  26196.73382907 -.00000177  00000+0 -48855-3 0  9998
2 49107  87.9146   0.1894 0001917  87.9679 272.1672 13.17648731237341
ONEWEB-0330             
1 49108U 21075AK  26196.81327383 -.00000016  00000+0 -75617-4 0  9994
2 49108  87.9147   0.1849 0002013  89.5617 270.5745 13.17646215237394
ONEWEB-0292             
1 49186U 21083A   26196.80832808 -.00000222  00000+0 -64328-3 0  9996
2 49186  87.8980 314.5419 0001814  96.9023 263.2313 13.13469808234686
ONEWEB-0303             
1 49187U 21083B   26196.83337647  .00000006  00000+0 -18585-4 0  9995
2 49187  87.9194 329.7597 0001809  94.0001 266.1338 13.18684315233752
ONEWEB-0306             
1 49188U 21083C   26196.74739302  .00000025  00000+0  30412-4 0  9993
2 49188  87.9199 329.7659 0002104 101.1004 259.0365 13.18684570233786
ONEWEB-0307             
1 49189U 21083D   26196.80239767 -.00000098  00000+0 -30346-3 0  9998
2 49189  87.8979 314.5406 0001899  96.4018 263.7328 13.13468309234681
ONEWEB-0320             
1 49190U 21083E   26196.76761273  .00000002  00000+0 -27700-4 0  9992
2 49190  87.9187 329.7770 0001944  98.6932 261.4421 13.18687236233749
ONEWEB-0321             
1 49191U 21083F   26196.15529735  .00000121  00000+0  26468-3 0  9991
2 49191  87.9185 268.8617 0002143 104.3143 255.8228 13.20773279240524
ONEWEB-0322             
1 49192U 21083G   26196.79818006 -.00000012  00000+0 -69082-4 0  9995
2 49192  87.8978 314.5413 0002064 113.2067 246.9279 13.13469620234673
ONEWEB-0324             
1 49193U 21083H   26196.81652810 -.00000036  00000+0 -12499-3 0  9993
2 49193  87.9199 329.7578 0002074  95.5627 264.5741 13.18686128233774
ONEWEB-0325             
1 49194U 21083J   26196.74401396  .00000018  00000+0  12262-4 0  9994
2 49194  87.9189 329.7776 0001812  99.2424 260.8913 13.18687100233770
ONEWEB-0326             
1 49195U 21083K   26196.83522338 -.00000031  00000+0 -11060-3 0  9996
2 49195  87.9197 329.7597 0001687  93.4042 266.7283 13.18685934233771
ONEWEB-0327             
1 49196U 21083L   26196.83494301 -.00000031  00000+0 -11170-3 0  9997
2 49196  87.9189 329.7616 0001487  93.3851 266.7451 13.18686230233799
ONEWEB-0328             
1 49197U 21083M   26196.78802428  .00000255  00000+0  66334-3 0  9993
2 49197  87.8988 314.5193 0002046  97.2819 262.8543 13.13469416234652
ONEWEB-0331             
1 49198U 21083N   26196.82832730 -.00000050  00000+0 -15910-3 0  9997
2 49198  87.9199 329.7548 0001710  88.5452 271.5876 13.18684316233785
ONEWEB-0333             
1 49199U 21083P   26196.78294564  .00000321  00000+0  84420-3 0  9991
2 49199  87.8980 314.5440 0001866 100.4536 259.6803 13.13469754234662
ONEWEB-0334             
1 49200U 21083Q   26196.24535218  .00000102  00000+0  21969-3 0  9995
2 49200  87.9185 268.8544 0002484 117.8612 242.2773 13.20769592240496
ONEWEB-0335             
1 49201U 21083R   26196.77786544  .00000344  00000+0  90615-3 0  9996
2 49201  87.8975 314.5425 0001831  95.1263 265.0075 13.13468738234676
