OBJECT_NAME,OBJECT_ID,EPOCH,MEAN_MOTION,ECCENTRICITY,INCLINATION,RA_OF_ASC_NODE,ARG_OF_PERICENTER,MEAN_ANOMALY,EPHEMERIS_TYPE,CLASSIFICATION_TYPE,NORAD_CAT_ID,ELEMENT_SET_NO,REV_AT_EPOCH,BSTAR,MEAN_MOTION_DOT,MEAN_MOTION_DDOT
ONEWEB-0309,2021-075W,2026-07-15T11:44:22.563456,13.17650662,.00023786,87.9145,0.2325,93.0127,267.1277,0,U,49095,999,23730,.16237636E-3,.76E-6,0
ONEWEB-0310,2021-075X,2026-07-15T19:47:20.637024,13.12443290,.0001875,87.8963,344.9848,96.9873,263.1469,0,U,49096,999,23894,-.11452E-2,-.399E-5,0
ONEWEB-0311,2021-075Y,2026-07-15T11:54:06.299136,13.17647878,.00017401,87.9143,0.2312,79.0319,281.1009,0,U,49097,999,23735,.83305313E-4,.45E-6,0
ONEWEB-0312,2021-075Z,2026-07-15T19:33:22.384224,13.17649919,.0002061,87.9142,0.1781,84.4156,275.7211,0,U,49098,999,23737,.47124E-3,.196E-5,0
ONEWEB-0313,2021-075AA,2026-07-15T17:51:06.123168,13.17650120,.000183,87.9143,0.1968,88.4378,271.6963,0,U,49099,999,23735,.69189E-4,.4E-6,0
ONEWEB-0314,2021-075AB,2026-07-15T11:34:39.262368,13.17650921,.00020711,87.9154,0.2249,82.5942,277.5425,0,U,49100,999,23729,.85467786E-4,.46E-6,0
ONEWEB-0315,2021-075AC,2026-07-15T19:08:19.616928,13.12441728,.0001581,87.8972,344.9566,85.7454,274.3855,0,U,49101,999,23892,.72251E-3,.273E-5,0
ONEWEB-0316,2021-075AD,2026-07-15T20:09:59.139648,13.18686479,.0001949,87.9194,329.7578,98.9147,261.2206,0,U,49102,999,24098,-.80764E-4,-.19E-6,0
ONEWEB-0317,2021-075AE,2026-07-15T19:13:12.379872,13.12441071,.0002482,87.8966,344.9796,107.9962,252.1438,0,U,49103,999,23894,.32218E-3,.129E-5,0
ONEWEB-0318,2021-075AF,2026-07-15T20:04:55.930080,13.18686628,.0001797,87.9197,329.7607,92.6146,267.5191,0,U,49104,999,24094,-.5919E-4,-.1E-6,0
ONEWEB-0319,2021-075AG,2026-07-15T13:45:52.809696,13.17648162,.0001528,87.9144,0.2209,80.6388,279.4916,0,U,49105,999,23734,.25533E-4,.23E-6,0
ONEWEB-0323,2021-075AH,2026-07-15T18:46:22.435104,13.12443267,.000165,87.8973,344.9649,78.3554,281.7759,0,U,49106,999,23830,.12113E-2,.449E-5,0
ONEWEB-0329,2021-075AJ,2026-07-15T17:36:42.831648,13.17648731,.0001917,87.9146,0.1894,87.9679,272.1672,0,U,49107,999,23734,-.48855E-3,-.177E-5,0
ONEWEB-0330,2021-075AK,2026-07-15T19:31:06.858912,13.17646215,.0002013,87.9147,0.1849,89.5617,270.5745,0,U,49108,999,23739,-.75617E-4,-.16E-6,0
ONEWEB-0292,2021-083A,2026-07-15T19:23:59.546112,13.13469808,.0001814,87.8980,314.5419,96.9023,263.2313,0,U,49186,999,23468,-.64328E-3,-.222E-5,0
ONEWEB-0303,2021-083B,2026-07-15T20:00:03.727008,13.18684315,.0001809,87.9194,329.7597,94.0001,266.1338,0,U,49187,999,23375,-.18585E-4,.6E-7,0
ONEWEB-0306,2021-083C,2026-07-15T17:56:14.756928,13.18684570,.0002104,87.9199,329.7659,101.1004,259.0365,0,U,49188,999,23378,.30412E-4,.25E-6,0
ONEWEB-0307,2021-083D,2026-07-15T19:15:27.158688,13.13468309,.0001899,87.8979,314.5406,96.4018,263.7328,0,U,49189,999,23468,-.30346E-3,-.98E-6,0
ONEWEB-0320,2021-083E,2026-07-15T18:25:21.739872,13.18687236,.0001944,87.9187,329.7770,98.6932,261.4421,0,U,49190,999,23374,-.277E-4,.2E-7,0
ONEWEB-0321,2021-083F,2026-07-15T03:43:37.691040,13.20773279,.00021432,87.9185,268.8617,104.3143,255.8228,0,U,49191,999,24052,.26467634E-3,.121E-5,0
ONEWEB-0322,2021-083G,2026-07-15T19:09:22.757184,13.13469620,.0002064,87.8978,314.5413,113.2067,246.9279,0,U,49192,999,23467,-.69082E-4,-.12E-6,0
ONEWEB-0324,2021-083H,2026-07-15T19:35:48.027840,13.18686128,.0002074,87.9199,329.7578,95.5627,264.5741,0,U,49193,999,23377,-.12499E-3,-.36E-6,0
ONEWEB-0325,2021-083J,2026-07-15T17:51:22.806144,13.18687100,.0001812,87.9189,329.7776,99.2424,260.8913,0,U,49194,999,23377,.12262E-4,.18E-6,0
ONEWEB-0326,2021-083K,2026-07-15T20:02:43.300032,13.18685934,.0001687,87.9197,329.7597,93.4042,266.7283,0,U,49195,999,23377,-.1106E-3,-.31E-6,0
ONEWEB-0327,2021-083L,2026-07-15T20:02:19.076064,13.18686230,.0001487,87.9189,329.7616,93.3851,266.7451,0,U,49196,999,23379,-.1117E-3,-.31E-6,0
ONEWEB-0328,2021-083M,2026-07-15T18:54:45.297792,13.13469416,.0002046,87.8988,314.5193,97.2819,262.8543,0,U,49197,999,23465,.66334E-3,.255E-5,0
ONEWEB-0331,2021-083N,2026-07-15T19:52:47.478720,13.18684316,.000171,87.9199,329.7548,88.5452,271.5876,0,U,49198,999,23378,-.1591E-3,-.5E-6,0
ONEWEB-0333,2021-083P,2026-07-15T18:47:26.503296,13.13469754,.0001866,87.8980,314.5440,100.4536,259.6803,0,U,49199,999,23466,.8442E-3,.321E-5,0
ONEWEB-0334,2021-083Q,2026-07-15T05:53:18.428352,13.20769592,.0002484,87.9185,268.8544,117.8612,242.2773,0,U,49200,999,24049,.2196883E-3,.102E-5,0
ONEWEB-0335,2021-083R,2026-07-15T18:40:07.574016,13.13468738,.0001831,87.8975,314.5425,95.1263,265.0075,0,U,49201,999,23467,.90615E-3,.344E-5,0
